{"type": "FeatureCollection", "features": [ {"type": "Feature", "properties": {"norad_id": 34910, "name": "COSMOS 2251 DEB", "group": "cosmos-2251-debris", "lat": 69.55574908387904, "lon": 146.9164192559362, "alt_km": 1359.7973490917593, "timestamp": "2025-12-16T03:53:27.450763+00:00", "meta": {"OBJECT_NAME": "COSMOS 2251 DEB", "OBJECT_ID": "1993-036ADF", "EPOCH": "2025-12-14T02:07:32.801376", "MEAN_MOTION": 13.37686817, "ECCENTRICITY": 0.0468001, "INCLINATION": 73.8761, "RA_OF_ASC_NODE": 99.2955, "ARG_OF_PERICENTER": 217.9911, "MEAN_ANOMALY": 321.1168, "EPHEMERIS_TYPE": 0, "CLASSIFICATION_TYPE": "U", "NORAD_CAT_ID": 34910, "ELEMENT_SET_NO": 999, "REV_AT_EPOCH": 81542, "BSTAR": 0.0016260876, "MEAN_MOTION_DOT": 1.586e-05, "MEAN_MOTION_DDOT": 0}, "tle": {"line1": "1 34910U 93036ADF 25348.08857409  .00001586  00000+0  16261-2 0  9998", "line2": "2 34910  73.8761  99.2955 0468001 217.9911 321.1168 13.37686817815421"}}, "geometry": {"type": "Point", "coordinates": [146.9164192559362, 69.55574908387904]}}, {"type": "Feature", "properties": {"norad_id": 34911, "name": "COSMOS 2251 DEB", "group": "cosmos-2251-debris", "lat": -72.75525209426769, "lon": 171.01783771767418, "alt_km": 697.6693509841807, "timestamp": "2025-12-16T03:53:27.450773+00:00", "meta": {"OBJECT_NAME": "COSMOS 2251 DEB", "OBJECT_ID": "1993-036ADG", "EPOCH": "2025-12-14T17:58:47.734176", "MEAN_MOTION": 14.59375822, "ECCENTRICITY": 0.00837067, "INCLINATION": 74.0408, "RA_OF_ASC_NODE": 240.9147, "ARG_OF_PERICENTER": 5.8148, "MEAN_ANOMALY": 51.4559, "EPHEMERIS_TYPE": 0, "CLASSIFICATION_TYPE": "U", "NORAD_CAT_ID": 34911, "ELEMENT_SET_NO": 999, "REV_AT_EPOCH": 88616, "BSTAR": 0.0001862909, "MEAN_MOTION_DOT": 8.94e-06, "MEAN_MOTION_DDOT": 0}, "tle": {"line1": "1 34911U 93036ADG 25348.74916359  .00000894  00000+0  18629-3 0  9994", "line2": "2 34911  74.0408 240.9147 0083706   5.8148  51.4559 14.59375822886164"}}, "geometry": {"type": "Point", "coordinates": [171.01783771767418, -72.75525209426769]}}, {"type": "Feature", "properties": {"norad_id": 34913, "name": "COSMOS 2251 DEB", "group": "cosmos-2251-debris", "lat": -23.215057290921166, "lon": -90.82835836044856, "alt_km": 771.8483349929411, "timestamp": "2025-12-16T03:53:27.450783+00:00", "meta": {"OBJECT_NAME": "COSMOS 2251 DEB", "OBJECT_ID": "1993-036ADJ", "EPOCH": "2025-12-13T12:56:38.472288", "MEAN_MOTION": 14.34637945, "ECCENTRICITY": 0.00203757, "INCLINATION": 74.0284, "RA_OF_ASC_NODE": 281.0321, "ARG_OF_PERICENTER": 30.7723, "MEAN_ANOMALY": 84.8293, "EPHEMERIS_TYPE": 0, "CLASSIFICATION_TYPE": "U", "NORAD_CAT_ID": 34913, "ELEMENT_SET_NO": 999, "REV_AT_EPOCH": 65199, "BSTAR": 8.4132523e-05, "MEAN_MOTION_DOT": 2.12e-06, "MEAN_MOTION_DDOT": 0}, "tle": {"line1": "1 34913U 93036ADJ 25347.53933417  .00000212  00000+0  84133-4 0  9994", "line2": "2 34913  74.0284 281.0321 0020375  30.7723  84.8293 14.34637945651993"}}, "geometry": {"type": "Point", "coordinates": [-90.82835836044856, -23.215057290921166]}}, {"type": "Feature", "properties": {"norad_id": 34918, "name": "COSMOS 2251 DEB", "group": "cosmos-2251-debris", "lat": 74.0601543419939, "lon": 36.71398417059132, "alt_km": 705.2694381127812, "timestamp": "2025-12-16T03:53:27.450794+00:00", "meta": {"OBJECT_NAME": "COSMOS 2251 DEB", "OBJECT_ID": "1993-036ADP", "EPOCH": "2025-12-15T06:25:32.155392", "MEAN_MOTION": 14.61253226, "ECCENTRICITY": 0.00334933, "INCLINATION": 74.0705, "RA_OF_ASC_NODE": 308.803, "ARG_OF_PERICENTER": 276.1787, "MEAN_ANOMALY": 150.6606, "EPHEMERIS_TYPE": 0, "CLASSIFICATION_TYPE": "U", "NORAD_CAT_ID": 34918, "ELEMENT_SET_NO": 999, "REV_AT_EPOCH": 65373, "BSTAR": 0.0013394114, "MEAN_MOTION_DOT": 6.635e-05, "MEAN_MOTION_DDOT": 0}, "tle": {"line1": "1 34918U 93036ADP 25349.26773328  .00006635  00000+0  13394-2 0  9998", "line2": "2 34918  74.0705 308.8030 0033493 276.1787 150.6606 14.61253226653732"}}, "geometry": {"type": "Point", "coordinates": [36.71398417059132, 74.0601543419939]}}, {"type": "Feature", "properties": {"norad_id": 34924, "name": "COSMOS 2251 DEB", "group": "cosmos-2251-debris", "lat": 65.16109811008266, "lon": 121.1040457991231, "alt_km": 690.0268736161761, "timestamp": "2025-12-16T03:53:27.450804+00:00", "meta": {"OBJECT_NAME": "COSMOS 2251 DEB", "OBJECT_ID": "1993-036ADV", "EPOCH": "2025-12-15T08:05:46.709088", "MEAN_MOTION": 14.60059641, "ECCENTRICITY": 0.00541658, "INCLINATION": 74.041, "RA_OF_ASC_NODE": 84.4918, "ARG_OF_PERICENTER": 168.4943, "MEAN_ANOMALY": 249.4488, "EPHEMERIS_TYPE": 0, "CLASSIFICATION_TYPE": "U", "NORAD_CAT_ID": 34924, "ELEMENT_SET_NO": 999, "REV_AT_EPOCH": 87761, "BSTAR": 0.00060951229, "MEAN_MOTION_DOT": 2.96e-05, "MEAN_MOTION_DDOT": 0}, "tle": {"line1": "1 34924U 93036ADV 25349.33734617  .00002960  00000+0  60951-3 0  9990", "line2": "2 34924  74.0410  84.4918 0054165 168.4943 249.4488 14.60059641877614"}}, "geometry": {"type": "Point", "coordinates": [121.1040457991231, 65.16109811008266]}}, {"type": "Feature", "properties": {"norad_id": 34944, "name": "COSMOS 2251 DEB", "group": "cosmos-2251-debris", "lat": -28.67297219815834, "lon": -143.30877727431806, "alt_km": 882.5602798076079, "timestamp": "2025-12-16T03:53:27.450814+00:00", "meta": {"OBJECT_NAME": "COSMOS 2251 DEB", "OBJECT_ID": "1993-036ADX", "EPOCH": "2025-12-07T09:30:46.029312", "MEAN_MOTION": 14.14167925, "ECCENTRICITY": 0.02195348, "INCLINATION": 73.7495, "RA_OF_ASC_NODE": 241.6775, "ARG_OF_PERICENTER": 90.2413, "MEAN_ANOMALY": 272.3884, "EPHEMERIS_TYPE": 0, "CLASSIFICATION_TYPE": "U", "NORAD_CAT_ID": 34944, "ELEMENT_SET_NO": 999, "REV_AT_EPOCH": 64007, "BSTAR": 0.00099492053, "MEAN_MOTION_DOT": 2.364e-05, "MEAN_MOTION_DDOT": 0}, "tle": {"line1": "1 34944U 93036ADX 25341.39636608  .00002364  00000+0  99492-3 0  9991", "line2": "2 34944  73.7495 241.6775 0219534  90.2413 272.3884 14.14167925640077"}}, "geometry": {"type": "Point", "coordinates": [-143.30877727431806, -28.67297219815834]}}, {"type": "Feature", "properties": {"norad_id": 34946, "name": "COSMOS 2251 DEB", "group": "cosmos-2251-debris", "lat": -56.379015685803125, "lon": -49.961028116623126, "alt_km": 727.3832735544929, "timestamp": "2025-12-16T03:53:27.450824+00:00", "meta": {"OBJECT_NAME": "COSMOS 2251 DEB", "OBJECT_ID": "1993-036ADZ", "EPOCH": "2025-12-11T09:12:32.820480", "MEAN_MOTION": 14.61985522, "ECCENTRICITY": 0.0048688, "INCLINATION": 74.0237, "RA_OF_ASC_NODE": 344.7115, "ARG_OF_PERICENTER": 122.3418, "MEAN_ANOMALY": 238.2476, "EPHEMERIS_TYPE": 0, "CLASSIFICATION_TYPE": "U", "NORAD_CAT_ID": 34946, "ELEMENT_SET_NO": 999, "REV_AT_EPOCH": 88189, "BSTAR": 0.00095647955, "MEAN_MOTION_DOT": 4.849e-05, "MEAN_MOTION_DDOT": 0}, "tle": {"line1": "1 34946U 93036ADZ 25345.38371320  .00004849  00000+0  95648-3 0  9992", "line2": "2 34946  74.0237 344.7115 0048688 122.3418 238.2476 14.61985522881890"}}, "geometry": {"type": "Point", "coordinates": [-49.961028116623126, -56.379015685803125]}}, {"type": "Feature", "properties": {"norad_id": 34949, "name": "COSMOS 2251 DEB", "group": "cosmos-2251-debris", "lat": -13.096708605266999, "lon": 99.14856661033724, "alt_km": 660.7864281753091, "timestamp": "2025-12-16T03:53:27.450834+00:00", "meta": {"OBJECT_NAME": "COSMOS 2251 DEB", "OBJECT_ID": "1993-036AEC", "EPOCH": "2025-12-15T00:15:42.913440", "MEAN_MOTION": 14.74016765, "ECCENTRICITY": 0.00803095, "INCLINATION": 74.0181, "RA_OF_ASC_NODE": 105.2196, "ARG_OF_PERICENTER": 250.0673, "MEAN_ANOMALY": 109.1837, "EPHEMERIS_TYPE": 0, "CLASSIFICATION_TYPE": "U", "NORAD_CAT_ID": 34949, "ELEMENT_SET_NO": 999, "REV_AT_EPOCH": 88395, "BSTAR": 0.00039146284, "MEAN_MOTION_DOT": 2.675e-05, "MEAN_MOTION_DDOT": 0}, "tle": {"line1": "1 34949U 93036AEC 25349.01091335  .00002675  00000+0  39146-3 0  9990", "line2": "2 34949  74.0181 105.2196 0080309 250.0673 109.1837 14.74016765883952"}}, "geometry": {"type": "Point", "coordinates": [99.14856661033724, -13.096708605266999]}}, {"type": "Feature", "properties": {"norad_id": 34953, "name": "COSMOS 2251 DEB", "group": "cosmos-2251-debris", "lat": -70.29982380836206, "lon": -106.31995231437503, "alt_km": 687.5143919045931, "timestamp": "2025-12-16T03:53:27.450844+00:00", "meta": {"OBJECT_NAME": "COSMOS 2251 DEB", "OBJECT_ID": "1993-036AEG", "EPOCH": "2025-12-15T02:20:19.330080", "MEAN_MOTION": 14.68981803, "ECCENTRICITY": 0.00581592, "INCLINATION": 74.0935, "RA_OF_ASC_NODE": 22.9413, "ARG_OF_PERICENTER": 14.283, "MEAN_ANOMALY": 16.5006, "EPHEMERIS_TYPE": 0, "CLASSIFICATION_TYPE": "U", "NORAD_CAT_ID": 34953, "ELEMENT_SET_NO": 999, "REV_AT_EPOCH": 88163, "BSTAR": 0.00054437709, "MEAN_MOTION_DOT": 3.242e-05, "MEAN_MOTION_DDOT": 0}, "tle": {"line1": "1 34953U 93036AEG 25349.09744595  .00003242  00000+0  54438-3 0  9998", "line2": "2 34953  74.0935  22.9413 0058159  14.2830  16.5006 14.68981803881633"}}, "geometry": {"type": "Point", "coordinates": [-106.31995231437503, -70.29982380836206]}}, {"type": "Feature", "properties": {"norad_id": 34955, "name": "COSMOS 2251 DEB", "group": "cosmos-2251-debris", "lat": 58.54502827296776, "lon": -92.55396880111965, "alt_km": 580.7759313197548, "timestamp": "2025-12-16T03:53:27.450854+00:00", "meta": {"OBJECT_NAME": "COSMOS 2251 DEB", "OBJECT_ID": "1993-036AEJ", "EPOCH": "2025-12-11T10:00:38.398176", "MEAN_MOTION": 15.00495775, "ECCENTRICITY": 0.00779991, "INCLINATION": 74.0375, "RA_OF_ASC_NODE": 249.1952, "ARG_OF_PERICENTER": 319.1032, "MEAN_ANOMALY": 40.4318, "EPHEMERIS_TYPE": 0, "CLASSIFICATION_TYPE": "U", "NORAD_CAT_ID": 34955, "ELEMENT_SET_NO": 999, "REV_AT_EPOCH": 90014, "BSTAR": 0.0014966224, "MEAN_MOTION_DOT": 0.00020131, "MEAN_MOTION_DDOT": 0}, "tle": {"line1": "1 34955U 93036AEJ 25345.41711109  .00020131  00000+0  14966-2 0  9994", "line2": "2 34955  74.0375 249.1952 0077999 319.1032  40.4318 15.00495775900143"}}, "geometry": {"type": "Point", "coordinates": [-92.55396880111965, 58.54502827296776]}}]}